{
    "links": {
        "self": "http://www.neowsapp.com/rest/v1/neo/3634128?api_key=iIulBulltgU6a56xZRHN4H3l9WmuAYTsLGpBGhQ2"
    },
    "id": "3634128",
    "neo_reference_id": "3634128",
    "name": "(2013 GG)",
    "designation": "2013 GG",
    "nasa_jpl_url": "http://ssd.jpl.nasa.gov/sbdb.cgi?sstr=3634128",
    "absolute_magnitude_h": 22.3,
    "estimated_diameter": {
        "kilometers": {
            "estimated_diameter_min": 0.0921626549,
            "estimated_diameter_max": 0.2060819612
        },
        "meters": {
            "estimated_diameter_min": 92.1626548503,
            "estimated_diameter_max": 206.0819612321
        },
        "miles": {
            "estimated_diameter_min": 0.057267201,
            "estimated_diameter_max": 0.1280533543
        },
        "feet": {
            "estimated_diameter_min": 302.370924539,
            "estimated_diameter_max": 676.1219416887
        }
    },
    "is_potentially_hazardous_asteroid": false,
    "close_approach_data": [
        {
            "close_approach_date": "2013-03-28",
            "close_approach_date_full": "2013-Mar-28 17:08",
            "epoch_date_close_approach": 1364490480000,
            "relative_velocity": {
                "kilometers_per_second": "13.6735507326",
                "kilometers_per_hour": "49224.7826372426",
                "miles_per_hour": "30586.36563368"
            },
            "miss_distance": {
                "astronomical": "0.2970575654",
                "lunar": "115.5553929406",
                "kilometers": "44439179.051225698",
                "miles": "27613225.4201547124"
            },
            "orbiting_body": "Earth"
        }
    ],
    "orbital_data": {
        "orbit_id": "8",
        "orbit_determination_date": "2017-04-06 08:46:17",
        "first_observation_date": "2013-04-01",
        "last_observation_date": "2013-04-20",
        "data_arc_in_days": 19,
        "observations_used": 31,
        "orbit_uncertainty": "7",
        "minimum_orbit_intersection": ".296792",
        "jupiter_tisserand_invariant": "3.313",
        "epoch_osculation": "2459000.5",
        "eccentricity": ".4454004705662584",
        "semi_major_axis": "2.331158701339616",
        "inclination": "25.59764137611045",
        "ascending_node_longitude": "189.3934163389941",
        "orbital_period": "1300.038421559839",
        "perihelion_distance": "1.292859518798323",
        "perihelion_argument": "352.44930603527",
        "aphelion_distance": "3.369457883880908",
        "perihelion_time": "2458973.467643769224",
        "mean_anomaly": "7.485662024821463",
        "mean_motion": ".276914892690677",
        "equinox": "J2000",
        "orbit_class": {
            "orbit_class_type": "AMO",
            "orbit_class_description": "Near-Earth asteroid orbits similar to that of 1221 Amor",
            "orbit_class_range": "1.017 AU < q (perihelion) < 1.3 AU"
        }
    },
    "is_sentry_object": false
}